HIMAWARI-8              
1 40267U 14060A   24178.55798654 -.00000272  00000+0  00000+0 0  9991
2 40267   0.0458 209.9233 0000836 270.5439 136.2207  1.00269645 35533
